{
  "norad_id": 67774,
  "name": "KUIPER-00205",
  "history": [
    {
      "epoch": "2026-03-28T19:20:33.641952",
      "apogee_km": 457.84424384962495,
      "perigee_km": 451.4729352741824,
      "latitude_deg": 50.66149730202111,
      "longitude_deg": -45.22928672004491,
      "semi_major_axis_km": 6832.795589561903,
      "eccentricity": 0.00046623,
      "inclination_deg": 51.8813,
      "raan_deg": 126.7087,
      "arg_perigee_deg": 74.5733,
      "mean_anomaly_deg": 285.5769,
      "mean_motion_rev_day": 15.37110606
    }
  ]
}