{"fetched_at":"2026-03-29T16:36:15Z","count":15609,"tles":[{"name":"KUIPER-00205","line1":"1 67774U 26030L   26087.80594493  .00027612  00000+0  75610-3 0  9996","line2":"2 67774  51.8813 126.7087 0004662  74.5733 285.5769 15.37110606  8030","category":"Other"}]}